{
    "links": {
        "self": "http://www.neowsapp.com/rest/v1/neo/3624595?api_key=iIulBulltgU6a56xZRHN4H3l9WmuAYTsLGpBGhQ2"
    },
    "id": "3624595",
    "neo_reference_id": "3624595",
    "name": "(2013 BT15)",
    "designation": "2013 BT15",
    "nasa_jpl_url": "http://ssd.jpl.nasa.gov/sbdb.cgi?sstr=3624595",
    "absolute_magnitude_h": 27.3,
    "estimated_diameter": {
        "kilometers": {
            "estimated_diameter_min": 0.0092162655,
            "estimated_diameter_max": 0.0206081961
        },
        "meters": {
            "estimated_diameter_min": 9.216265485,
            "estimated_diameter_max": 20.6081961232
        },
        "miles": {
            "estimated_diameter_min": 0.0057267201,
            "estimated_diameter_max": 0.0128053354
        },
        "feet": {
            "estimated_diameter_min": 30.2370924539,
            "estimated_diameter_max": 67.6121941689
        }
    },
    "is_potentially_hazardous_asteroid": false,
    "close_approach_data": [
        {
            "close_approach_date": "2013-01-20",
            "close_approach_date_full": "2013-Jan-20 23:48",
            "epoch_date_close_approach": 1358725680000,
            "relative_velocity": {
                "kilometers_per_second": "6.9724513418",
                "kilometers_per_hour": "25100.8248305324",
                "miles_per_hour": "15596.676406505"
            },
            "miss_distance": {
                "astronomical": "0.0117092607",
                "lunar": "4.5549024123",
                "kilometers": "1751680.459994709",
                "miles": "1088443.7660326242"
            },
            "orbiting_body": "Earth"
        }
    ],
    "orbital_data": {
        "orbit_id": "4",
        "orbit_determination_date": "2017-04-06 08:47:09",
        "first_observation_date": "2013-01-17",
        "last_observation_date": "2013-01-18",
        "data_arc_in_days": 1,
        "observations_used": 8,
        "orbit_uncertainty": "9",
        "minimum_orbit_intersection": ".0115737",
        "jupiter_tisserand_invariant": "4.039",
        "epoch_osculation": "2456310.5",
        "eccentricity": ".4321881481902961",
        "semi_major_axis": "1.731820662735908",
        "inclination": "6.104477317770217",
        "ascending_node_longitude": "296.4344282879145",
        "orbital_period": "832.4397351523999",
        "perihelion_distance": ".9833482975103848",
        "perihelion_argument": "198.6044815095357",
        "aphelion_distance": "2.480293027961431",
        "perihelion_time": "2456325.282988047474",
        "mean_anomaly": "353.6068937217223",
        "mean_motion": ".4324637385721293",
        "equinox": "J2000",
        "orbit_class": {
            "orbit_class_type": "APO",
            "orbit_class_description": "Near-Earth asteroid orbits which cross the Earth’s orbit similar to that of 1862 Apollo",
            "orbit_class_range": "a (semi-major axis) > 1.0 AU; q (perihelion) < 1.017 AU"
        }
    },
    "is_sentry_object": false
}